GLOBALSTAR M024         
1 25883U 99043A   24133.90600735 -.00000114  00000+0 -17436-2 0  9994
2 25883  52.0002 203.7895 0001874 172.7731 358.8396 11.10159649 70409
GLOBALSTAR M027         
1 25884U 99043B   24133.79699695 -.00000016  00000+0  18214-2 0  9990
2 25884  52.0213 270.6739 0021639  66.5599 293.7466 11.04368071 97001
GLOBALSTAR M054         
1 25885U 99043C   24133.93713846 -.00000074  00000+0 -59633-4 0  9999
2 25885  52.0115 104.8250 0004464 214.0773 231.7412 11.39203269 73439
GLOBALSTAR M053         
1 25886U 99043D   24133.94771951 -.00000043  00000+0  74760-3 0  9994
2 25886  52.0017  29.6919 0003767 113.6582 329.1375 11.27654928 74298
GLOBALSTAR M058         
1 25907U 99049A   24133.63147967 -.00000062  00000+0  29856-3 0  9991
2 25907  51.9928  98.7414 0002184 233.0312 127.0323 11.93177173493724
GLOBALSTAR M050         
1 25908U 99049B   24133.74227990 -.00000064  00000+0  27065-3 0  9991
2 25908  51.9958 136.0402 0009210 313.9085 216.9318 12.07433138 99819
GLOBALSTAR M033         
1 25909U 99049C   24133.97422379 -.00000068  00000+0  23191-3 0  9995
2 25909  51.9937  34.8806 0011759 162.7411 197.3838 12.20273339486880
GLOBALSTAR M055         
1 25910U 99049D   24133.52260537 -.00000046  00000+0  41140-3 0  9994
2 25910  52.0031  66.3955 0007520  21.8327 338.2844 12.29401050119008
